FENGYUN 1C DEB          
1 36684U 99025DZE 17345.33403368  .00000537  00000-0  18758-3 0  9999
2 36684  99.5008  31.7170 0060653  74.7567 286.0313 14.38907324235515
